{"fetched_at":"2026-07-16T17:46:52.457Z","source":"https://celestrak.org/NORAD/elements/gp.php?NAME=PLEIADES&FORMAT=JSON","constellation":"pleiades-neo","records":[{"OBJECT_NAME":"PLEIADES NEO 3","OBJECT_ID":"2021-034A","EPOCH":"2026-07-16T07:00:38.176992","CLASSIFICATION_TYPE":"U","MEAN_MOTION":14.81668086,"ECCENTRICITY":0.00013237,"INCLINATION":97.8944,"RA_OF_ASC_NODE":271.64,"ARG_OF_PERICENTER":95.1532,"MEAN_ANOMALY":264.9832,"EPHEMERIS_TYPE":0,"NORAD_CAT_ID":48268,"ELEMENT_SET_NO":999,"REV_AT_EPOCH":28196,"BSTAR":0.000035025074,"MEAN_MOTION_DOT":0.00000224,"MEAN_MOTION_DDOT":0},{"OBJECT_NAME":"PLEIADES NEO 4","OBJECT_ID":"2021-073E","EPOCH":"2026-07-16T07:49:14.803392","CLASSIFICATION_TYPE":"U","MEAN_MOTION":14.81673982,"ECCENTRICITY":0.00013592,"INCLINATION":97.8943,"RA_OF_ASC_NODE":271.6692,"ARG_OF_PERICENTER":93.2948,"MEAN_ANOMALY":266.8421,"EPHEMERIS_TYPE":0,"NORAD_CAT_ID":49070,"ELEMENT_SET_NO":999,"REV_AT_EPOCH":26568,"BSTAR":0.000057940485,"MEAN_MOTION_DOT":0.00000404,"MEAN_MOTION_DDOT":0}]}
